[{"OBJECT_ID":"2005-049A","OBJECT_NAME":"INSAT 4A","NORAD_CAT_ID":"28911","OBJECT_TYPE":"PAYLOAD","PERIOD":"1436.086","INCLINATION":"0.078","APOGEE":"35804.860","PERIGEE":"35767.932","ECCENTRICITY":"0.0004379","MEAN_MOTION":"1.00272499","TLE_LINE1":"1 28911U 05049A   16238.84016785 -.00000192  00000-0  00000+0 0  9990","TLE_LINE2":"2 28911   0.0780 270.3204 0004379 315.2292 134.4081  1.00272499 39178","LAUNCH_DATE":"2005-12-21","LAUNCH_SITE":"FRENCH GUIANA","OWNER":"INDIA","ORBIT_TYPE":"Geosynchronous","OPERATIONAL_STATUS":"Operational","satInfo":{"lng":67.51774882667891,"lat":0.1791833309773242,"elevation":-8.402810302075947,"azimuth":247.4822511733211,"range":42601.72109651069,"height":35766.46759897443,"velocity":3.076114266860725},"x":237,"y":-100,"dx":1.1762975403510754,"dy":2.8423235353048932,"maxAlt":256,"minAlt":256},{"OBJECT_ID":"2005-052A","OBJECT_NAME":"EUTE 172A (GE 23)","NORAD_CAT_ID":"28924","OBJECT_TYPE":"PAYLOAD","PERIOD":"1436.111","INCLINATION":"0.0672","APOGEE":"35809.554","PERIGEE":"35764.210","ECCENTRICITY":"0.0005377","MEAN_MOTION":"1.00270766","TLE_LINE1":"1 28924U 05052A   16238.59601903 -.00000033  00000-0  00000+0 0  9996","TLE_LINE2":"2 28924   0.0672 357.1297 0005377 165.9277 197.7743  1.00270766 39060","LAUNCH_DATE":"2005-12-29","LAUNCH_SITE":"TYURATAM MISSILE AND SPACE COMPLEX","OWNER":"EUROPEAN TELECOMMUNICATIONS SATELLITE ORGANIZATION (EUTELSAT)","ORBIT_TYPE":"Geosynchronous","OPERATIONAL_STATUS":"Operational","satInfo":{"lng":91.14851836191936,"lat":-0.16726233225223577,"elevation":-8.7435708456862,"azimuth":223.85148163808063,"range":42628.04533458467,"height":35754.689009913825,"velocity":3.0757605717367382},"x":256,"y":4,"dx":-0.061650804871489176,"dy":3.075142642693019,"maxAlt":256,"minAlt":256},{"OBJECT_ID":"2006-003B","OBJECT_NAME":"BLOCK DM-SL R/B","NORAD_CAT_ID":"28936","OBJECT_TYPE":"ROCKET BODY","PERIOD":"656.045","INCLINATION":"0.2955","APOGEE":"35602.912","PERIGEE":"1661.126","ECCENTRICITY":"0.6785601","MEAN_MOTION":"2.19496805","TLE_LINE1":"1 28936U 06003B   16238.87054488 -.00000214 +00000-0 +00000-0 0  9999","TLE_LINE2":"2 28936 000.2955 117.3801 6785601 057.4833 001.1677 02.19496805084429","LAUNCH_DATE":"2006-02-15","LAUNCH_SITE":"SEA LAUNCH","OWNER":"SEA LAUNCH DEMO","ORBIT_TYPE":"Highly Elliptical Orbit","OPERATIONAL_STATUS":"N/A, derelict rocket body","satInfo":{"lng":133.09607206642235,"lat":0.06309317075630562,"elevation":-8.57414301313498,"azimuth":181.90392793357765,"range":42330.899114697044,"height":35479.68735283202,"velocity":1.7630717708988342},"x":185,"y":173,"dx":-1.20457244605505,"dy":1.287411081024746,"maxAlt":255,"minAlt":11},{"OBJECT_ID":"2006-004A","OBJECT_NAME":"MTSAT 2","NORAD_CAT_ID":"28937","OBJECT_TYPE":"PAYLOAD","PERIOD":"1436.106","INCLINATION":"0.0319","APOGEE":"35801.823","PERIGEE":"35771.742","ECCENTRICITY":"0.0003567","MEAN_MOTION":"1.00271121","TLE_LINE1":"1 28937U 06004A   16238.92132579 -.00000271 +00000-0 +00000-0 0  9998","TLE_LINE2":"2 28937 000.0319 090.9699 0003567 053.9453 306.3444 01.00271121038567","LAUNCH_DATE":"2006-02-18","LAUNCH_SITE":"TANEGASHIMA SPACE CENTER","OWNER":"JAPAN","ORBIT_TYPE":"Geosynchronous","OPERATIONAL_STATUS":"Operational","satInfo":{"lng":-61.796605207818416,"lat":1.9231688092369938,"elevation":-6.688257873072332,"azimuth":16.79660520781842,"range":42442.17049139948,"height":35798.92812024922,"velocity":3.0746808562084404},"x":-229,"y":-123,"dx":1.4531033399107078,"dy":-2.7096407605206663,"maxAlt":256,"minAlt":256},{"OBJECT_ID":"2006-007A","OBJECT_NAME":"SPAINSAT","NORAD_CAT_ID":"28945","OBJECT_TYPE":"PAYLOAD","PERIOD":"1436.082","INCLINATION":"0.0562","APOGEE":"35807.218","PERIGEE":"35765.399","ECCENTRICITY":"0.0004959","MEAN_MOTION":"1.00272813","TLE_LINE1":"1 28945U 06007A   16239.15320924 -.00000244  00000-0  00000+0 0  9998","TLE_LINE2":"2 28945   0.0562 257.7994 0004959 279.2816 182.9149  1.00272813 38311","LAUNCH_DATE":"2006-03-11","LAUNCH_SITE":"FRENCH GUIANA","OWNER":"SPAIN","ORBIT_TYPE":"Geosynchronous","OPERATIONAL_STATUS":"Operational","satInfo":{"lng":-50.10543297975691,"lat":-2.1489347039054625,"elevation":-10.672833691065856,"azimuth":5.105432979756884,"range":42848.258170076115,"height":35758.48038156442,"velocity":3.0761112830049604},"x":-199,"y":-167,"dx":1.972946667958964,"dy":-2.360072471518628,"maxAlt":256,"minAlt":256},{"OBJECT_ID":"2006-007B","OBJECT_NAME":"EUTE 9A (HB 7A)","NORAD_CAT_ID":"28946","OBJECT_TYPE":"PAYLOAD","PERIOD":"1436.070","INCLINATION":"0.021","APOGEE":"35813.764","PERIGEE":"35758.386","ECCENTRICITY":"0.0006567","MEAN_MOTION":"1.00273645","TLE_LINE1":"1 28946U 06007B   16239.03420172  .00000059  00000-0  00000+0 0  9995","TLE_LINE2":"2 28946   0.0210 133.1060 0006567  36.6049 190.2959  1.00273645 38385","LAUNCH_DATE":"2006-03-11","LAUNCH_SITE":"FRENCH GUIANA","OWNER":"EUROPEAN TELECOMMUNICATIONS SATELLITE ORGANIZATION (EUTELSAT)","ORBIT_TYPE":"Geosynchronous","OPERATIONAL_STATUS":"Operational","satInfo":{"lng":15.14151944950006,"lat":1.8129988540152353,"elevation":-6.805591659975451,"azimuth":299.85848055049996,"range":42409.2707465757,"height":35753.385147451765,"velocity":3.0768826956471336},"x":66,"y":-250,"dx":2.97006441299673,"dy":0.8036942860461062,"maxAlt":257,"minAlt":256},{"OBJECT_ID":"2006-010A","OBJECT_NAME":"JCSAT 9","NORAD_CAT_ID":"29045","OBJECT_TYPE":"PAYLOAD","PERIOD":"1436.161","INCLINATION":"0.0207","APOGEE":"35792.260","PERIGEE":"35783.473","ECCENTRICITY":"0.0001042","MEAN_MOTION":"1.00267255","TLE_LINE1":"1 29045U 06010A   16238.81438253 -.00000356  00000-0  00000+0 0  9995","TLE_LINE2":"2 29045   0.0207 114.3116 0001042  55.6940 229.7041  1.00267255 38020","LAUNCH_DATE":"2006-04-12","LAUNCH_SITE":"SEA LAUNCH","OWNER":"JAPAN","ORBIT_TYPE":"Geosynchronous","OPERATIONAL_STATUS":"Operational","satInfo":{"lng":126.77130719873409,"lat":-1.4039702164633663,"elevation":-9.9402560080361,"azimuth":188.2286928012659,"range":42807.53668008996,"height":35799.43429847695,"velocity":3.074130776643918},"x":205,"y":153,"dx":-1.8402439433043376,"dy":2.4624748244481687,"maxAlt":256,"minAlt":256},{"OBJECT_ID":"2006-010B","OBJECT_NAME":"BLOCK DM-SL R/B","NORAD_CAT_ID":"29046","OBJECT_TYPE":"ROCKET BODY","PERIOD":"656.283","INCLINATION":"0.201","APOGEE":"35616.224","PERIGEE":"1659.860","ECCENTRICITY":"0.6786881","MEAN_MOTION":"2.19417534","TLE_LINE1":"1 29046U 06010B   16238.77614104 +.00000004 +00000-0 +49193-1 0  9999","TLE_LINE2":"2 29046 000.2010 073.5395 6786881 139.9557 356.3969 02.19417534083155","LAUNCH_DATE":"2006-04-12","LAUNCH_SITE":"SEA LAUNCH","OWNER":"SEA LAUNCH DEMO","ORBIT_TYPE":"Highly Elliptical Orbit","OPERATIONAL_STATUS":"N/A, derelict rocket body","satInfo":{"lng":-170.18020905399513,"lat":-2.208887740738396,"elevation":-11.45366762520454,"azimuth":125.18020905399511,"range":39530.9664397911,"height":32394.372338319747,"velocity":2.1493720540924444},"x":-41,"y":228,"dx":-2.1178817038914186,"dy":-0.36657511540686244,"maxAlt":255,"minAlt":11},{"OBJECT_ID":"2006-012A","OBJECT_NAME":"ASTRA 1KR","NORAD_CAT_ID":"29055","OBJECT_TYPE":"PAYLOAD","PERIOD":"1436.067","INCLINATION":"0.0925","APOGEE":"35804.150","PERIGEE":"35767.872","ECCENTRICITY":"0.0004302","MEAN_MOTION":"1.00273872","TLE_LINE1":"1 29055U 06012A   16239.00535610  .00000092  00000-0  00000+0 0  9991","TLE_LINE2":"2 29055   0.0925 277.8934 0004302 277.3134 160.6126  1.00273872 37827","LAUNCH_DATE":"2006-04-20","LAUNCH_SITE":"AIR FORCE EASTERN TEST RANGE","OWNER":"SOCIÉTÉ EUROPÉENNE DES SATELLITES","ORBIT_TYPE":"Geosynchronous","OPERATIONAL_STATUS":"Operational","satInfo":{"lng":34.88609281795702,"lat":-1.300443912903275,"elevation":-9.849327763140305,"azimuth":280.11390718204296,"range":42747.26303298345,"height":35749.91366961304,"velocity":3.076696522174366},"x":146,"y":-213,"dx":2.523785625265891,"dy":1.759706682166405,"maxAlt":256,"minAlt":256},{"OBJECT_ID":"2006-018A","OBJECT_NAME":"GOES 13","NORAD_CAT_ID":"29155","OBJECT_TYPE":"PAYLOAD","PERIOD":"1436.069","INCLINATION":"0.046","APOGEE":"35797.802","PERIGEE":"35774.299","ECCENTRICITY":"0.0002787","MEAN_MOTION":"1.00273733","TLE_LINE1":"1 29155U 06018A   16239.27664244 -.00000279  00000-0  00000+0 0  9991","TLE_LINE2":"2 29155   0.0460 247.7262 0002787 225.6544 246.6412  1.00273733 37603","LAUNCH_DATE":"2006-05-24","LAUNCH_SITE":"AIR FORCE EASTERN TEST RANGE","OWNER":"UNITED STATES OF AMERICA","ORBIT_TYPE":"Geosynchronous","OPERATIONAL_STATUS":"Operational","satInfo":{"lng":-91.01929291687817,"lat":-1.5424986822837565,"elevation":-10.076959893056262,"azimuth":46.01929291687818,"range":42813.26322063438,"height":35789.937382683114,"velocity":3.074921918534283},"x":-259,"y":3,"dx":-0.054700029169060874,"dy":-3.074435348465058,"maxAlt":256,"minAlt":256},{"OBJECT_ID":"2006-020B","OBJECT_NAME":"THAICOM 5","NORAD_CAT_ID":"29163","OBJECT_TYPE":"PAYLOAD","PERIOD":"1436.087","INCLINATION":"0.047","APOGEE":"35805.822","PERIGEE":"35767.005","ECCENTRICITY":"0.0004603","MEAN_MOTION":"1.00272437","TLE_LINE1":"1 29163U 06020B   16238.92584662 -.00000149  00000-0  00000+0 0  9995","TLE_LINE2":"2 29163   0.0470 280.8243 0004603 296.2147 169.3569  1.00272437 37617","LAUNCH_DATE":"2006-05-27","LAUNCH_SITE":"FRENCH GUIANA","OWNER":"THAILAND","ORBIT_TYPE":"Geosynchronous","OPERATIONAL_STATUS":"Operational","satInfo":{"lng":72.00462403096925,"lat":-0.059231523496728486,"elevation":-8.635522295240447,"azimuth":242.99537596903073,"range":42628.83157496728,"height":35767.45455439346,"velocity":3.0760589226239285},"x":244,"y":-81,"dx":0.9503183780140979,"dy":2.9255825874281753,"maxAlt":256,"minAlt":256}]